H1 CPF 01  gfz 2021 06 30 12  6812 tandemx   
H2 1003001  6202 36605    2021 06 30 12 59 42 2021 07 05 00 00 42   120 1 1  0 0 0
H9
10 0 59399  48942.000000  0    -206563.282   1708860.212  -6676811.638
10 0 59399  49062.000000  0     195101.734   2495325.466  -6424685.905
10 0 59399  49182.000000  0     606710.963   3231432.815  -6060432.168
10 0 59399  49302.000000  0    1020129.288   3904282.030  -5590330.603
10 0 59399  49422.000000  0    1426961.632   4502185.107  -5022504.461
10 0 59399  49542.000000  0    1818719.452   5014873.694  -4366792.045
10 0 59399  49662.000000  0    2186994.695   5433683.422  -3634586.360
10 0 59399  49782.000000  0    2523636.988   5751709.446  -2838645.584
10 0 59399  49902.000000  0    2820931.189   5963931.461  -1992876.881
10 0 59399  50022.000000  0    3071771.160   6067303.872  -1112095.206
10 0 59399  50142.000000  0    3269824.508   6060807.515   -211761.061
10 0 59399  50262.000000  0    3409683.600   5945460.399    692296.707
10 0 59399  50382.000000  0    3486999.576   5724287.321   1584166.227
10 0 59399  50502.000000  0    3498596.294   5402250.038   2448140.599
10 0 59399  50622.000000  0    3442559.859   4986138.845   3269003.377
10 0 59399  50742.000000  0    3318302.645   4484426.006   4032304.197
10 0 59399  50862.000000  0    3126600.444   3907088.540   4724617.563
10 0 59399  50982.000000  0    2869598.008   3265402.613   5333783.238
10 0 59399  51102.000000  0    2550786.548   2571714.821   5849116.567
10 0 59399  51222.000000  0    2174956.857   1839199.519   6261591.077
10 0 59399  51342.000000  0    1748125.589   1081603.818   6563992.282
10 0 59399  51462.000000  0    1277435.868    312986.351   6751036.931
10 0 59399  51582.000000  0     771035.969   -452542.889   6819459.175
10 0 59399  51702.000000  0     237937.862  -1201081.127   6768065.617
10 0 59399  51822.000000  0    -312143.512  -1919185.581   6597754.738
10 0 59399  51942.000000  0    -868967.366  -2594114.880   6311501.559
10 0 59399  52062.000000  0   -1421956.549  -3214055.480   5914307.218
10 0 59399  52182.000000  0   -1960395.637  -3768329.275   5413116.758
10 0 59399  52302.000000  0   -2473638.470  -4247581.433   4816705.887
10 0 59399  52422.000000  0   -2951321.392  -4643944.931   4135534.135
10 0 59399  52542.000000  0   -3383575.806  -4951176.540   3381564.851
10 0 59399  52662.000000  0   -3761233.906  -5164761.091   2568055.620
10 0 59399  52782.000000  0   -4076023.756  -5281982.182   1709324.235
10 0 59399  52902.000000  0   -4320750.714  -5301957.492    820492.754
10 0 59399  53022.000000  0   -4489459.317  -5225636.632    -82785.280
10 0 59399  53142.000000  0   -4577571.789  -5055762.158   -984608.616
10 0 59399  53262.000000  0   -4581999.002  -4796793.965  -1869117.944
10 0 59399  53382.000000  0   -4501220.295  -4454798.184  -2720783.668
10 0 59399  53502.000000  0   -4335330.822  -4037304.560  -3524684.311
10 0 59399  53622.000000  0   -4086055.981  -3553137.505  -4266769.936
10 0 59399  53742.000000  0   -3756733.609  -3012225.413  -4934106.172
10 0 59399  53862.000000  0   -3352264.620  -2425392.423  -5515094.701
10 0 59399  53982.000000  0   -2879033.924  -1804138.476  -5999666.246
10 0 59399  54102.000000  0   -2344804.430  -1160412.408  -6379445.084
10 0 59399  54222.000000  0   -1758585.064   -506382.201  -6647882.752
10 0 59399  54342.000000  0   -1130476.612    145792.436  -6800358.718
10 0 59399  54462.000000  0    -471499.819    784180.613  -6834250.256
10 0 59399  54582.000000  0     206594.020   1397292.907  -6748972.897
10 0 59399  54702.000000  0     891526.378   1974282.199  -6545989.765
10 0 59399  54822.000000  0    1570708.984   2505131.963  -6228791.446
10 0 59399  54942.000000  0    2231470.575   2980828.360  -5802842.133
10 0 59399  55062.000000  0    2861289.768   3393513.510  -5275494.473
10 0 59399  55182.000000  0    3448029.864   3736616.971  -4655873.925
10 0 59399  55302.000000  0    3980173.654   4004965.414  -3954732.801
10 0 59399  55422.000000  0    4447053.107   4194866.264  -3184273.454
10 0 59399  55542.000000  0    4839068.559   4304163.064  -2357942.278
10 0 59399  55662.000000  0    5147891.102   4332260.564  -1490198.348
10 0 59399  55782.000000  0    5366644.797   4280119.028   -596259.913
10 0 59399  55902.000000  0    5490061.738   4150216.980    308166.486
10 0 59399  56022.000000  0    5514607.371   3946483.776   1207167.881
10 0 59399  56142.000000  0    5438572.734   3674201.623   2084913.256
10 0 59399  56262.000000  0    5262129.444   3339879.639   2925941.533
10 0 59399  56382.000000  0    4987345.336   2951104.392   3715442.515
10 0 59399  56502.000000  0    4618161.385   2516369.539   4439524.222
10 0 59399  56622.000000  0    4160331.103   2044889.115   5085458.840
10 0 59399  56742.000000  0    3621325.754   1546402.531   5641907.871
10 0 59399  56862.000000  0    3010203.229   1030971.283   6099119.177
10 0 59399  56982.000000  0    2337448.441    508773.866   6449091.049
10 0 59399  57102.000000  0    1614789.142    -10094.331   6685704.975
10 0 59399  57222.000000  0     854989.119   -515814.988   6804828.617
10 0 59399  57342.000000  0      71620.306   -999032.668   6804384.092
10 0 59399  57462.000000  0    -721180.141  -1451027.282   6684380.971
10 0 59399  57582.000000  0   -1508964.543  -1863871.485   6446915.210
10 0 59399  57702.000000  0   -2277236.266  -2230569.336   6096133.351
10 0 59399  57822.000000  0   -3011714.506  -2545174.722   5638166.260
10 0 59399  57942.000000  0   -3698602.964  -2802890.731   5081030.482
10 0 59399  58062.000000  0   -4324854.309  -3000145.180   4434492.256
10 0 59399  58182.000000  0   -4878423.168  -3134640.562   3709900.064
10 0 59399  58302.000000  0   -5348503.945  -3205377.567   2919988.401
10 0 59399  58422.000000  0   -5725749.216  -3212652.626   2078655.461
10 0 59399  58542.000000  0   -6002463.412  -3158029.270   1200715.768
10 0 59399  58662.000000  0   -6172764.741  -3044282.021    301632.737
10 0 59399  58782.000000  0   -6232711.860  -2875314.607   -602761.099
10 0 59399  58902.000000  0   -6180392.644  -2656055.349  -1496552.445
10 0 59399  59022.000000  0   -6015969.984  -2392330.870  -2364036.983
10 0 59399  59142.000000  0   -5741685.299  -2090723.067  -3190001.526
10 0 59399  59262.000000  0   -5361821.523  -1758413.185  -3959994.576
10 0 59399  59382.000000  0   -4882625.951  -1403016.753  -4660579.288
10 0 59399  59502.000000  0   -4312196.552  -1032413.741  -5279564.744
10 0 59399  59622.000000  0   -3660333.673   -654577.487  -5806211.529
10 0 59399  59742.000000  0   -2938362.105   -277406.958  -6231407.822
10 0 59399  59862.000000  0   -2158928.315     91434.257  -6547815.228
10 0 59399  59982.000000  0   -1335776.147    444668.641  -6749983.906
10 0 59399  60102.000000  0    -483505.892    775543.016  -6834435.936
10 0 59399  60222.000000  0     382679.431   1077954.080  -6799717.944
10 0 59399  60342.000000  0    1247237.404   1346557.006  -6646423.982
10 0 59399  60462.000000  0    2094559.258   1576858.072  -6377188.898
10 0 59399  60582.000000  0    2909246.346   1765289.460  -5996647.743
10 0 59399  60702.000000  0    3676386.206   1909264.041  -5511363.321
10 0 59399  60822.000000  0    4381823.111   2007210.058  -4929723.893
10 0 59399  60942.000000  0    5012422.186   2058585.861  -4261810.284
10 0 59399  61062.000000  0    5556319.945   2063873.097  -3519230.969
10 0 59399  61182.000000  0    6003155.474   2024548.296  -2714928.974
10 0 59399  61302.000000  0    6344279.174   1943033.668  -1862962.370
10 0 59399  61422.000000  0    6572931.783   1822627.671   -978259.169
10 0 59399  61542.000000  0    6684388.588   1667415.853    -76353.281
10 0 59399  61662.000000  0    6676064.083   1482164.107    826895.046
10 0 59399  61782.000000  0    6547573.514   1272197.968   1715584.453
10 0 59399  61902.000000  0    6300753.383   1043269.972   2574061.615
10 0 59399  62022.000000  0    5939634.132    801417.914   3387206.194
10 0 59399  62142.000000  0    5470369.638    552819.112   4140704.366
10 0 59399  62262.000000  0    4901122.916    303643.579   4821304.667
10 0 59399  62382.000000  0    4241915.687     59911.044   5417052.128
10 0 59399  62502.000000  0    3504441.252   -172647.159   5917497.753
10 0 59399  62622.000000  0    2701847.233   -388715.370   6313876.392
10 0 59399  62742.000000  0    1848495.158   -583508.758   6599254.371
10 0 59399  62862.000000  0     959699.453   -752874.792   6768645.819
10 0 59399  62982.000000  0      51449.092   -893379.024   6819094.833
10 0 59399  63102.000000  0    -859880.611  -1002373.051   6749722.506
10 0 59399  63222.000000  0   -1757822.238  -1078044.384   6561740.479
10 0 59399  63342.000000  0   -2626112.238  -1119446.376   6258430.329
10 0 59399  63462.000000  0   -3448984.034  -1126508.184   5845090.784
10 0 59399  63582.000000  0   -4211457.128  -1100025.383   5328952.533
10 0 59399  63702.000000  0   -4899615.545  -1041631.818   4719057.946
10 0 59399  63822.000000  0   -5500869.403   -953751.646   4026107.290
10 0 59399  63942.000000  0   -6004193.528   -839532.919   3262273.703
10 0 59399  64062.000000  0   -6400338.172   -702764.046   2440991.283
10 0 59399  64182.000000  0   -6682009.950   -547774.943   1576718.634
10 0 59399  64302.000000  0   -6844015.670   -379325.125    684678.800
10 0 59399  64422.000000  0   -6883363.400   -202481.859   -219416.675
10 0 59399  64542.000000  0   -6799319.685    -22490.814  -1119653.334
10 0 59399  64662.000000  0   -6593420.276    155357.226  -2000203.024
10 0 59399  64782.000000  0   -6269436.300    325859.449  -2845608.363
10 0 59399  64902.000000  0   -5833297.336    484031.352  -3641060.838
10 0 59399  65022.000000  0   -5292969.563    625231.235  -4372663.069
10 0 59399  65142.000000  0   -4658297.077    745274.976  -5027669.590
10 0 59399  65262.000000  0   -3940809.539    840538.704  -5594702.906
10 0 59399  65382.000000  0   -3153502.516    908047.198  -6063941.959
99
